SHIJIAN-6 02B (SJ-6 02B)
1 29506U 06046B   26062.83152913  .00002671  00000+0  21380-3 0  9998
2 29506  97.7050  92.6137 0014190  61.5699 298.6953 15.00963549 54936
FGRST (GLAST)           
1 33053U 08029A   26062.72201032  .00005181  00000+0  19841-3 0  9996
2 33053  25.5812 216.4397 0008499 158.2380 201.8520 15.23274978979739
SDO                     
1 36395U 10005A   26062.06732369 -.00000069  00000+0  00000+0 0  9998
2 36395  34.4278  87.9487 0000369  70.7532 284.4475  1.00275344 58992
CRYOSAT 2               
1 36508U 10013A   26062.84062270  .00000264  00000+0  64684-4 0  9995
2 36508  92.0224 251.7782 0002121  86.4391 273.7059 14.51905509842794
X-SAT                   
1 37389U 11015C   26062.91610425  .00000242  00000+0  12047-3 0  9996
2 37389  98.3413  45.0096 0012993 294.9843  64.9987 14.25170022772684
GCOM-W1 (SHIZUKU)       
1 38337U 12025A   26062.43014228  .00000846  00000+0  19783-3 0  9992
2 38337  98.2049   4.5851 0001519  76.0003  42.7147 14.57087195733637
NUSTAR                  
1 38358U 12031A   26062.91670139  .00009782  00000+0  56841-3 0  9998
2 38358   6.0270 103.1231 0008599 334.2725  79.1523 15.07626177  1305
NEOSSAT                 
1 39089U 13009D   26062.49365163  .00000296  00000+0  11704-3 0  9997
2 39089  98.4136 245.0483 0010679 196.0187 164.0663 14.35781585681573
BRITE-AUSTRIA           
1 39091U 13009F   26062.47500305  .00000308  00000+0  11935-3 0  9997
2 39091  98.3949 244.5381 0009982 189.6550 170.4446 14.36491679681871
IRIS                    
1 39197U 13033A   26062.56560226  .00001906  00000+0  22550-3 0  9999
2 39197  97.9398 262.1371 0023522 306.4360  53.4686 14.85622833684691
HISAKI (SPRINT-A)       
1 39253U 13049A   26062.29470017  .00000114  00000+0  63843-4 0  9998
2 39253  29.7218  38.3671 0136733 238.2771 120.4408 13.55529947617041
CASSIOPE                
1 39265U 13055A   26062.82108417  .00044099 -51700-6  53247-3 0  9996
2 39265  80.9192 193.9943 0317470  55.7921 307.2959 15.18246555651644
STSAT-3                 
1 39422U 13066G   26062.88351631  .00004672  00000+0  36028-3 0  9997
2 39422  97.6055  34.6181 0012049  34.5443 325.6562 15.02027322668391
SWARM B                 
1 39451U 13067A   26062.83980017  .00005943  00000+0  21786-3 0  9998
2 39451  87.7486  14.2602 0003702  90.0287 270.1386 15.27788904667150
SWARM A                 
1 39452U 13067B   26062.77807252  .00013533  00000+0  25305-3 0  9996
2 39452  87.3288  95.3488 0003029  93.3112 266.8494 15.48589472689927
SWARM C                 
1 39453U 13067C   26062.77796331  .00013743  00000+0  25698-3 0  9990
2 39453  87.3285  93.9304 0003021  93.3485 266.8120 15.48589140689884
BRITE-CA1 (TORONTO)     
1 40020U 14033L   26062.30920247  .00001673  00000+0  25976-3 0  9998
2 40020  97.9556 193.3093 0077697 255.6268 103.6306 14.72440643626634
