[{"OBJECT_NAME":"SHIJIAN-6 02B (SJ-6 02B)","OBJECT_ID":"2006-046B","EPOCH":"2026-03-03T19:57:24.116832","MEAN_MOTION":15.00963549,"ECCENTRICITY":0.001419,"INCLINATION":97.705,"RA_OF_ASC_NODE":92.6137,"ARG_OF_PERICENTER":61.5699,"MEAN_ANOMALY":298.6953,"EPHEMERIS_TYPE":0,"CLASSIFICATION_TYPE":"U","NORAD_CAT_ID":29506,"ELEMENT_SET_NO":999,"REV_AT_EPOCH":5493,"BSTAR":0.0002138,"MEAN_MOTION_DOT":2.671e-5,"MEAN_MOTION_DDOT":0},{"OBJECT_NAME":"FGRST (GLAST)","OBJECT_ID":"2008-029A","EPOCH":"2026-03-03T17:19:41.691648","MEAN_MOTION":15.23274978,"ECCENTRICITY":0.0008499,"INCLINATION":25.5812,"RA_OF_ASC_NODE":216.4397,"ARG_OF_PERICENTER":158.238,"MEAN_ANOMALY":201.852,"EPHEMERIS_TYPE":0,"CLASSIFICATION_TYPE":"U","NORAD_CAT_ID":33053,"ELEMENT_SET_NO":999,"REV_AT_EPOCH":97973,"BSTAR":0.00019841,"MEAN_MOTION_DOT":5.181e-5,"MEAN_MOTION_DDOT":0},{"OBJECT_NAME":"SDO","OBJECT_ID":"2010-005A","EPOCH":"2026-03-03T01:36:56.766816","MEAN_MOTION":1.00275344,"ECCENTRICITY":3.696e-5,"INCLINATION":34.4278,"RA_OF_ASC_NODE":87.9487,"ARG_OF_PERICENTER":70.7532,"MEAN_ANOMALY":284.4475,"EPHEMERIS_TYPE":0,"CLASSIFICATION_TYPE":"U","NORAD_CAT_ID":36395,"ELEMENT_SET_NO":999,"REV_AT_EPOCH":5899,"BSTAR":0,"MEAN_MOTION_DOT":-6.9e-7,"MEAN_MOTION_DDOT":0},{"OBJECT_NAME":"CRYOSAT 2","OBJECT_ID":"2010-013A","EPOCH":"2026-03-03T20:10:29.801280","MEAN_MOTION":14.51905509,"ECCENTRICITY":0.0002121,"INCLINATION":92.0224,"RA_OF_ASC_NODE":251.7782,"ARG_OF_PERICENTER":86.4391,"MEAN_ANOMALY":273.7059,"EPHEMERIS_TYPE":0,"CLASSIFICATION_TYPE":"U","NORAD_CAT_ID":36508,"ELEMENT_SET_NO":999,"REV_AT_EPOCH":84279,"BSTAR":6.4684e-5,"MEAN_MOTION_DOT":2.64e-6,"MEAN_MOTION_DDOT":0},{"OBJECT_NAME":"X-SAT","OBJECT_ID":"2011-015C","EPOCH":"2026-03-03T21:59:11.407200","MEAN_MOTION":14.25170022,"ECCENTRICITY":0.0012993,"INCLINATION":98.3413,"RA_OF_ASC_NODE":45.0096,"ARG_OF_PERICENTER":294.9843,"MEAN_ANOMALY":64.9987,"EPHEMERIS_TYPE":0,"CLASSIFICATION_TYPE":"U","NORAD_CAT_ID":37389,"ELEMENT_SET_NO":999,"REV_AT_EPOCH":77268,"BSTAR":0.00012047,"MEAN_MOTION_DOT":2.42e-6,"MEAN_MOTION_DDOT":0},{"OBJECT_NAME":"GCOM-W1 (SHIZUKU)","OBJECT_ID":"2012-025A","EPOCH":"2026-03-03T10:19:24.292992","MEAN_MOTION":14.57087195,"ECCENTRICITY":0.0001519,"INCLINATION":98.2049,"RA_OF_ASC_NODE":4.5851,"ARG_OF_PERICENTER":76.0003,"MEAN_ANOMALY":42.7147,"EPHEMERIS_TYPE":0,"CLASSIFICATION_TYPE":"U","NORAD_CAT_ID":38337,"ELEMENT_SET_NO":999,"REV_AT_EPOCH":73363,"BSTAR":0.00019782911,"MEAN_MOTION_DOT":8.46e-6,"MEAN_MOTION_DDOT":0},{"OBJECT_NAME":"NUSTAR","OBJECT_ID":"2012-031A","EPOCH":"2026-03-03T22:00:03.000096","MEAN_MOTION":15.07626177,"ECCENTRICITY":0.0008599,"INCLINATION":6.027,"RA_OF_ASC_NODE":103.1231,"ARG_OF_PERICENTER":334.2725,"MEAN_ANOMALY":79.1523,"EPHEMERIS_TYPE":0,"CLASSIFICATION_TYPE":"U","NORAD_CAT_ID":38358,"ELEMENT_SET_NO":999,"REV_AT_EPOCH":130,"BSTAR":0.00056841,"MEAN_MOTION_DOT":9.782e-5,"MEAN_MOTION_DDOT":0},{"OBJECT_NAME":"NEOSSAT","OBJECT_ID":"2013-009D","EPOCH":"2026-03-03T11:50:51.500832","MEAN_MOTION":14.35781585,"ECCENTRICITY":0.00106794,"INCLINATION":98.4136,"RA_OF_ASC_NODE":245.0483,"ARG_OF_PERICENTER":196.0187,"MEAN_ANOMALY":164.0663,"EPHEMERIS_TYPE":0,"CLASSIFICATION_TYPE":"U","NORAD_CAT_ID":39089,"ELEMENT_SET_NO":999,"REV_AT_EPOCH":68157,"BSTAR":0.00011703616,"MEAN_MOTION_DOT":2.96e-6,"MEAN_MOTION_DDOT":0},{"OBJECT_NAME":"BRITE-AUSTRIA","OBJECT_ID":"2013-009F","EPOCH":"2026-03-03T11:24:00.263520","MEAN_MOTION":14.36491679,"ECCENTRICITY":0.00099823,"INCLINATION":98.3949,"RA_OF_ASC_NODE":244.5381,"ARG_OF_PERICENTER":189.655,"MEAN_ANOMALY":170.4446,"EPHEMERIS_TYPE":0,"CLASSIFICATION_TYPE":"U","NORAD_CAT_ID":39091,"ELEMENT_SET_NO":999,"REV_AT_EPOCH":68187,"BSTAR":0.00011935017,"MEAN_MOTION_DOT":3.08e-6,"MEAN_MOTION_DDOT":0},{"OBJECT_NAME":"IRIS","OBJECT_ID":"2013-033A","EPOCH":"2026-03-03T13:34:28.035264","MEAN_MOTION":14.85622833,"ECCENTRICITY":0.0023522,"INCLINATION":97.9398,"RA_OF_ASC_NODE":262.1371,"ARG_OF_PERICENTER":306.436,"MEAN_ANOMALY":53.4686,"EPHEMERIS_TYPE":0,"CLASSIFICATION_TYPE":"U","NORAD_CAT_ID":39197,"ELEMENT_SET_NO":999,"REV_AT_EPOCH":68469,"BSTAR":0.0002255,"MEAN_MOTION_DOT":1.906e-5,"MEAN_MOTION_DDOT":0},{"OBJECT_NAME":"HISAKI (SPRINT-A)","OBJECT_ID":"2013-049A","EPOCH":"2026-03-03T07:04:22.094688","MEAN_MOTION":13.55529947,"ECCENTRICITY":0.01367334,"INCLINATION":29.7218,"RA_OF_ASC_NODE":38.3671,"ARG_OF_PERICENTER":238.2771,"MEAN_ANOMALY":120.4408,"EPHEMERIS_TYPE":0,"CLASSIFICATION_TYPE":"U","NORAD_CAT_ID":39253,"ELEMENT_SET_NO":999,"REV_AT_EPOCH":61704,"BSTAR":6.3843123e-5,"MEAN_MOTION_DOT":1.14e-6,"MEAN_MOTION_DDOT":0},{"OBJECT_NAME":"CASSIOPE","OBJECT_ID":"2013-055A","EPOCH":"2026-03-03T19:42:21.672288","MEAN_MOTION":15.18246555,"ECCENTRICITY":0.031747,"INCLINATION":80.9192,"RA_OF_ASC_NODE":193.9943,"ARG_OF_PERICENTER":55.7921,"MEAN_ANOMALY":307.2959,"EPHEMERIS_TYPE":0,"CLASSIFICATION_TYPE":"U","NORAD_CAT_ID":39265,"ELEMENT_SET_NO":999,"REV_AT_EPOCH":65164,"BSTAR":0.00053247,"MEAN_MOTION_DOT":0.00044099,"MEAN_MOTION_DDOT":-5.17e-7},{"OBJECT_NAME":"STSAT-3","OBJECT_ID":"2013-066G","EPOCH":"2026-03-03T21:12:15.809184","MEAN_MOTION":15.02027322,"ECCENTRICITY":0.0012049,"INCLINATION":97.6055,"RA_OF_ASC_NODE":34.6181,"ARG_OF_PERICENTER":34.5443,"MEAN_ANOMALY":325.6562,"EPHEMERIS_TYPE":0,"CLASSIFICATION_TYPE":"U","NORAD_CAT_ID":39422,"ELEMENT_SET_NO":999,"REV_AT_EPOCH":66839,"BSTAR":0.00036028,"MEAN_MOTION_DOT":4.672e-5,"MEAN_MOTION_DDOT":0},{"OBJECT_NAME":"SWARM B","OBJECT_ID":"2013-067A","EPOCH":"2026-03-03T20:09:18.734688","MEAN_MOTION":15.27788904,"ECCENTRICITY":0.0003702,"INCLINATION":87.7486,"RA_OF_ASC_NODE":14.2602,"ARG_OF_PERICENTER":90.0287,"MEAN_ANOMALY":270.1386,"EPHEMERIS_TYPE":0,"CLASSIFICATION_TYPE":"U","NORAD_CAT_ID":39451,"ELEMENT_SET_NO":999,"REV_AT_EPOCH":66715,"BSTAR":0.00021786,"MEAN_MOTION_DOT":5.943e-5,"MEAN_MOTION_DDOT":0},{"OBJECT_NAME":"SWARM A","OBJECT_ID":"2013-067B","EPOCH":"2026-03-03T18:40:25.465728","MEAN_MOTION":15.48589472,"ECCENTRICITY":0.0003029,"INCLINATION":87.3288,"RA_OF_ASC_NODE":95.3488,"ARG_OF_PERICENTER":93.3112,"MEAN_ANOMALY":266.8494,"EPHEMERIS_TYPE":0,"CLASSIFICATION_TYPE":"U","NORAD_CAT_ID":39452,"ELEMENT_SET_NO":999,"REV_AT_EPOCH":68992,"BSTAR":0.00025305,"MEAN_MOTION_DOT":0.00013533,"MEAN_MOTION_DDOT":0},{"OBJECT_NAME":"SWARM C","OBJECT_ID":"2013-067C","EPOCH":"2026-03-03T18:40:16.029984","MEAN_MOTION":15.4858914,"ECCENTRICITY":0.0003021,"INCLINATION":87.3285,"RA_OF_ASC_NODE":93.9304,"ARG_OF_PERICENTER":93.3485,"MEAN_ANOMALY":266.812,"EPHEMERIS_TYPE":0,"CLASSIFICATION_TYPE":"U","NORAD_CAT_ID":39453,"ELEMENT_SET_NO":999,"REV_AT_EPOCH":68988,"BSTAR":0.00025698,"MEAN_MOTION_DOT":0.00013743,"MEAN_MOTION_DDOT":0},{"OBJECT_NAME":"BRITE-CA1 (TORONTO)","OBJECT_ID":"2014-033L","EPOCH":"2026-03-03T07:25:15.093408","MEAN_MOTION":14.72440643,"ECCENTRICITY":0.00776971,"INCLINATION":97.9556,"RA_OF_ASC_NODE":193.3093,"ARG_OF_PERICENTER":255.6268,"MEAN_ANOMALY":103.6306,"EPHEMERIS_TYPE":0,"CLASSIFICATION_TYPE":"U","NORAD_CAT_ID":40020,"ELEMENT_SET_NO":999,"REV_AT_EPOCH":62663,"BSTAR":0.00025975949,"MEAN_MOTION_DOT":1.673e-5,"MEAN_MOTION_DDOT":0}]
